NORAD_CAT_ID,OBJECT_NAME,OBJECT_TYPE,EPOCH,MEAN_MOTION,ECCENTRICITY,INCLINATION,RA_OF_ASC_NODE,ARG_OF_PERICENTER,MEAN_ANOMALY,BSTAR,MEAN_MOTION_DOT,MEAN_MOTION_DDOT,TLE_LINE0,TLE_LINE1,TLE_LINE2,SEMIMAJOR_AXIS,PERIOD,APOGEE,PERIGEE,DECAYED
56483.0,STARLINK-5868,PAYLOAD,2024-02-14 14:08:33,14.98331784,0.0002897,69.9992,225.7551,268.6678,91.4149,1.4993e-05,8.6e-07,0.0,0 STARLINK-5868,1 56483U 23064AM  24045.58927512  .00000086  00000-0  14993-4 0  9999,2 56483  69.9992 225.7551 0002897 268.6678  91.4149 14.98331784 42785,6950.187,96.107,574.066,570.039,0.0
56483.0,STARLINK-5868,PAYLOAD,2024-02-14 22:09:13,14.98331945,0.0002909,69.9992,224.9131,269.6885,90.3941,1.7518e-05,1.16e-06,0.0,0 STARLINK-5868,1 56483U 23064AM  24045.92307465  .00000116  00000-0  17518-4 0  9996,2 56483  69.9992 224.9131 0002909 269.6885  90.3941 14.98331945 42838,6950.187,96.107,574.074,570.03,0.0
56483.0,STARLINK-5868,PAYLOAD,2024-02-15 14:10:34,14.98329251,0.0002914,69.9993,223.2298,269.8571,90.2254,2.3477e-05,1.87e-06,0.0,0 STARLINK-5868,1 56483U 23064AM  24046.59067579  .00000187  00000-0  23477-4 0  9998,2 56483  69.9993 223.2298 0002914 269.8571  90.2254 14.98329251 42939,6950.195,96.107,574.085,570.035,0.0
56483.0,STARLINK-5868,PAYLOAD,2024-02-15 18:58:58,14.98329215,0.0002916,69.9993,222.7249,269.8777,90.2048,2.2071e-05,1.7e-06,0.0,0 STARLINK-5868,1 56483U 23064AM  24046.79095592  .00000170  00000-0  22071-4 0  9997,2 56483  69.9993 222.7249 0002916 269.8777  90.2048 14.98329215 43324,6950.195,96.107,574.087,570.034,0.0
56483.0,STARLINK-5868,PAYLOAD,2024-02-15 22:11:14,14.98330144,0.0002934,69.9993,222.388,270.4278,89.6545,3.0195e-05,2.67e-06,0.0,0 STARLINK-5868,1 56483U 23064AM  24046.92447507  .00000267  00000-0  30195-4 0  9992,2 56483  69.9993 222.3880 0002934 270.4278  89.6545 14.98330144 42983,6950.192,96.107,574.097,570.018,0.0
56483.0,STARLINK-5868,PAYLOAD,2024-02-16 14:12:35,14.98331901,0.0003024,69.9991,220.7042,271.9392,88.1421,2.0622e-06,-6.8e-07,0.0,0 STARLINK-5868,1 56483U 23064AM  24047.59207386 -.00000068  00000-0  20622-5 0  9990,2 56483  69.9991 220.7042 0003024 271.9392  88.1421 14.98331901 43088,6950.187,96.107,574.154,569.95,0.0
56483.0,STARLINK-5868,PAYLOAD,2024-02-16 19:00:59,14.98332473,0.0003017,69.9993,220.1993,271.9482,88.1332,9.7334e-06,2.3e-07,0.0,0 STARLINK-5868,1 56483U 23064AM  24047.79235298  .00000023  00000-0  97334-5 0  9999,2 56483  69.9993 220.1993 0003017 271.9482  88.1332 14.98332473 43470,6950.185,96.107,574.147,569.953,0.0
56483.0,STARLINK-5868,PAYLOAD,2024-02-16 20:37:07,14.98332933,0.0003013,69.9993,220.031,271.9101,88.1713,1.496e-05,8.6e-07,0.0,0 STARLINK-5868,1 56483U 23064AM  24047.85911242  .00000086  00000-0  14960-4 0  9998,2 56483  69.9993 220.0310 0003013 271.9101  88.1713 14.98332933 43122,6950.184,96.107,574.143,569.955,0.0
56483.0,STARLINK-5868,PAYLOAD,2024-02-17 14:14:36,14.9832855,0.0002971,69.9995,218.1794,269.4295,90.6524,-1.8774e-05,-3.17e-06,0.0,0 STARLINK-5868,1 56483U 23064AM  24048.59347555 -.00000317  00000-0 -18774-4 0  9996,2 56483  69.9995 218.1794 0002971 269.4295  90.6524 14.98328550 43236,6950.197,96.107,574.127,569.997,0.0
56483.0,STARLINK-5868,PAYLOAD,2024-02-17 19:03:01,14.98319755,0.0003025,69.9996,217.6748,268.8991,91.1822,-0.00012736,-1.612e-05,0.0,0 STARLINK-5868,1 56483U 23064AM  24048.79376474 -.00001612  00000-0 -12736-3 0  9990,2 56483  69.9996 217.6748 0003025 268.8991  91.1822 14.98319755 43624,6950.225,96.108,574.192,569.987,0.0
56483.0,STARLINK-5868,PAYLOAD,2024-02-17 20:39:09,14.98317253,0.0003056,69.9994,217.5065,268.9714,91.1095,-0.00013489,-1.702e-05,0.0,0 STARLINK-5868,1 56483U 23064AM  24048.86052696 -.00001702  00000-0 -13489-3 0  9991,2 56483  69.9994 217.5065 0003056 268.9714  91.1095 14.98317253 43275,6950.232,96.108,574.221,569.973,0.0
56483.0,STARLINK-5868,PAYLOAD,2024-02-18 14:16:38,14.9831917,0.0003146,69.9996,215.655,268.9362,91.1437,-7.5988e-05,-9.99e-06,0.0,0 STARLINK-5868,1 56483U 23064AM  24049.59488906 -.00000999  00000-0 -75988-4 0  9999,2 56483  69.9996 215.6550 0003146 268.9362  91.1437 14.98319170 43386,6950.226,96.108,574.278,569.905,0.0
56483.0,STARLINK-5868,PAYLOAD,2024-02-18 19:05:02,14.98325485,0.0003115,69.9994,215.1501,269.1306,90.9496,-4.4254e-05,-6.21e-06,0.0,0 STARLINK-5868,1 56483U 23064AM  24049.79516537 -.00000621  00000-0 -44254-4 0  9997,2 56483  69.9994 215.1501 0003115 269.1306  90.9496 14.98325485 43773,6950.207,96.107,574.237,569.907,0.0
56483.0,STARLINK-5868,PAYLOAD,2024-02-18 20:41:10,14.98325917,0.0003108,69.9994,214.9818,269.2028,90.8775,-3.7324e-05,-5.38e-06,0.0,0 STARLINK-5868,1 56483U 23064AM  24049.86192518 -.00000538  00000-0 -37324-4 0  9991,2 56483  69.9994 214.9818 0003108 269.2028  90.8775 14.98325917 43426,6950.206,96.107,574.231,569.91,0.0
56483.0,STARLINK-5868,PAYLOAD,2024-02-19 14:18:38,14.98328537,0.000314,69.9994,213.1298,268.9232,91.1567,8.2978e-05,8.97e-06,0.0,0 STARLINK-5868,1 56483U 23064AM  24050.59628217  .00000897  00000-0  82978-4 0  9994,2 56483  69.9994 213.1298 0003140 268.9232  91.1567 14.98328537 43534,6950.197,96.107,574.245,569.88,0.0
56483.0,STARLINK-5868,PAYLOAD,2024-02-19 19:07:05,14.98211911,0.0002455,69.9993,212.6251,274.4568,85.6311,0.0021623,0.00025723,0.0,0 STARLINK-5868,1 56483U 23064AM  24050.79658649  .00025723  00000-0  21623-2 0  9991,2 56483  69.9993 212.6251 0002455 274.4568  85.6311 14.98211911 43923,6950.558,96.115,574.129,570.717,0.0
56483.0,STARLINK-5868,PAYLOAD,2024-02-19 20:43:10,14.98330118,0.0003102,69.9993,212.4567,269.112,90.9683,0.00017195,1.959e-05,0.0,0 STARLINK-5868,1 56483U 23064AM  24050.86331916  .00001959  00000-0  17195-3 0  9999,2 56483  69.9993 212.4567 0003102 269.1120  90.9683 14.98330118 43579,6950.193,96.107,574.213,569.902,0.0
56483.0,STARLINK-5868,PAYLOAD,2024-02-20 14:20:39,14.98333893,0.0003012,69.9995,210.605,269.4464,90.635,0.00015627,1.772e-05,0.0,0 STARLINK-5868,1 56483U 23064AM  24051.59767748  .00001772  00000-0  15627-3 0  9997,2 56483  69.9995 210.6050 0003012 269.4464  90.6350 14.98333893 43685,6950.181,96.107,574.139,569.952,0.0
56483.0,STARLINK-5868,PAYLOAD,2024-02-20 20:45:11,14.98338615,0.0003039,69.9995,209.9317,269.7242,90.3569,0.00015166,1.717e-05,0.0,0 STARLINK-5868,1 56483U 23064AM  24051.86471343  .00001717  00000-0  15166-3 0  9997,2 56483  69.9995 209.9317 0003039 269.7242  90.3569 14.98338615 43729,6950.166,96.106,574.143,569.919,0.0
56483.0,STARLINK-5868,PAYLOAD,2024-02-21 14:22:39,14.98337945,0.0002939,69.9998,208.0804,270.1939,89.8883,5.2969e-06,-3e-07,0.0,0 STARLINK-5868,1 56483U 23064AM  24052.59907407 -.00000030  00000-0  52969-5 0  9995,2 56483  69.9998 208.0804 0002939 270.1939  89.8883 14.98337945 43839,6950.168,96.106,574.076,569.991,0.0
56483.0,STARLINK-5868,PAYLOAD,2024-02-21 20:47:11,14.98339577,0.0002844,70.0001,207.408,267.7444,92.339,1.7431e-05,1.15e-06,0.0,0 STARLINK-5868,1 56483U 23064AM  24052.86611087  .00000115  00000-0  17431-4 0  9998,2 56483  70.0001 207.4080 0002844 267.7444  92.3390 14.98339577 43873,6950.163,96.106,574.005,570.052,0.0
56483.0,STARLINK-5868,PAYLOAD,2024-02-22 03:11:44,14.98335413,0.0002821,70.0003,206.7347,268.2131,91.8705,-4.4473e-05,-6.24e-06,0.0,0 STARLINK-5868,1 56483U 23064AM  24053.13315362 -.00000624  00000-0 -44473-4 0  9999,2 56483  70.0003 206.7347 0002821 268.2131  91.8705 14.98335413 44271,6950.176,96.107,574.002,570.081,0.0
56483.0,STARLINK-5868,PAYLOAD,2024-02-22 14:24:40,14.98335128,0.0002768,70.0004,205.5567,267.894,92.1902,-8.0289e-05,-1.051e-05,0.0,0 STARLINK-5868,1 56483U 23064AM  24053.60047273 -.00001051  00000-0 -80289-4 0  9994,2 56483  70.0004 205.5567 0002768 267.8940  92.1902 14.98335128 43989,6950.177,96.107,573.966,570.118,0.0
56483.0,STARLINK-5868,PAYLOAD,2024-02-22 19:13:05,14.98333862,0.0002815,70.0003,205.0514,270.0474,90.0362,-9.076e-05,-1.176e-05,0.0,0 STARLINK-5868,1 56483U 23064AM  24053.80075323 -.00001176  00000-0 -90760-4 0  9996,2 56483  70.0003 205.0514 0002815 270.0474  90.0362 14.98333862 44011,6950.181,96.107,574.002,570.089,0.0
56483.0,STARLINK-5868,PAYLOAD,2024-02-23 11:14:25,14.98329643,0.0002705,70.0004,203.3684,267.0458,93.0392,-6.7558e-05,-8.99e-06,0.0,0 STARLINK-5868,1 56483U 23064AM  24054.46835387 -.00000899  00000-0 -67558-4 0  9993,2 56483  70.0004 203.3684 0002705 267.0458  93.0392 14.98329643 44475,6950.194,96.107,573.939,570.179,0.0
56483.0,STARLINK-5868,PAYLOAD,2024-02-23 14:26:42,14.9832774,0.0002784,70.0004,203.0318,269.39,90.694,-7.4862e-05,-9.86e-06,0.0,0 STARLINK-5868,1 56483U 23064AM  24054.60187543 -.00000986  00000-0 -74862-4 0  9996,2 56483  70.0004 203.0318 0002784 269.3900  90.6940 14.98327740 44131,6950.2,96.107,574.0,570.13,0.0
56483.0,STARLINK-5868,PAYLOAD,2024-02-23 19:15:06,14.98327718,0.0002879,70.0003,202.5268,270.6533,89.4296,-7.6037e-05,-1e-05,0.0,0 STARLINK-5868,1 56483U 23064AM  24054.80215557 -.00001000  00000-0 -76037-4 0  9999,2 56483  70.0003 202.5268 0002879 270.6533  89.4296 14.98327718 44168,6950.2,96.107,574.066,570.064,0.0
56483.0,STARLINK-5868,PAYLOAD,2024-02-24 11:16:26,14.98325194,0.0003083,69.9999,200.8435,270.3436,89.7369,5.6478e-06,-2.6e-07,0.0,0 STARLINK-5868,1 56483U 23064AM  24055.46975499 -.00000026  00000-0  56478-5 0  9994,2 56483  69.9999 200.8435 0003083 270.3436  89.7369 14.98325194 44624,6950.208,96.107,574.216,569.93,0.0
56483.0,STARLINK-5868,PAYLOAD,2024-02-24 14:28:43,14.98314946,0.000298,70.0,200.5067,267.7118,92.37,-0.00011212,-1.43e-05,0.0,0 STARLINK-5868,1 56483U 23064AM  24055.60328541 -.00001430  00000-0 -11212-3 0  9996,2 56483  70.0000 200.5067 0002980 267.7118  92.3700 14.98314946 44284,6950.239,96.108,574.176,570.033,0.0
56483.0,STARLINK-5868,PAYLOAD,2024-02-24 16:04:52,14.98314696,0.0003072,69.9999,200.3381,270.0461,90.0346,-0.00013835,-1.743e-05,0.0,0 STARLINK-5868,1 56483U 23064AM  24055.67004637 -.00001743  00000-0 -13835-3 0  9990,2 56483  69.9999 200.3381 0003072 270.0461  90.0346 14.98314696 44650,6950.24,96.108,574.24,569.97,0.0
